start=new Date('2022-08-15T00:00:00.000Z').valueOf();
sats=[{"TIME_SYSTEM":"UTC","RCS_SIZE":"LARGE","LAUNCH_DATE":"2021-03-14","ARG_OF_PERICENTER":"89.3251","FILE":"3536615","RA_OF_ASC_NODE":"10.3027","CLASSIFICATION_TYPE":"U","PERIAPSIS":"546.341","MEAN_MOTION_DOT":"0.00000551","OBJECT_NAME":"STARLINK-2368","MEAN_ELEMENT_THEORY":"SGP4","TLE_LINE2":"2 47908  53.0565  10.3027 0001280  89.3251 270.7885 15.06395330 79677","OBJECT_TYPE":"PAYLOAD","SITE":"AFETR","EPHEMERIS_TYPE":"0","MEAN_MOTION":"15.06395330","DECAY_DATE":null,"OBJECT_ID":"2021-021BA","PERIOD":"95.592","REF_FRAME":"TEME","TLE_LINE1":"1 47908U 21021BA  22226.85119152  .00000551  00000-0  55865-4 0  9994","EPOCH":"2022-08-14T20:25:42.947328","MEAN_ANOMALY":"270.7885","REV_AT_EPOCH":"7967","APOAPSIS":"548.114","GP_ID":"210232645","ECCENTRICITY":"0.00012800","COUNTRY_CODE":"US","MEAN_MOTION_DDOT":"0.0000000000000","BSTAR":"0.00005586500000","SEMIMAJOR_AXIS":"6925.363","ELEMENT_SET_NO":"999","INCLINATION":"53.0565","CENTER_NAME":"EARTH","NORAD_CAT_ID":"47908"},{"BSTAR":"0.00008726300000","MEAN_MOTION_DDOT":"0.0000000000000","NORAD_CAT_ID":"47909","SEMIMAJOR_AXIS":"6925.317","ELEMENT_SET_NO":"999","CENTER_NAME":"EARTH","INCLINATION":"53.0554","TLE_LINE1":"1 47909U 21021BB  22226.66780879  .00001019  00000-0  87263-4 0  9991","OBJECT_ID":"2021-021BB","PERIOD":"95.591","REF_FRAME":"TEME","GP_ID":"210231396","ECCENTRICITY":"0.00014260","COUNTRY_CODE":"US","EPOCH":"2022-08-14T16:01:38.679456","MEAN_ANOMALY":"279.8907","REV_AT_EPOCH":"7995","APOAPSIS":"548.170","SITE":"AFETR","OBJECT_TYPE":"PAYLOAD","EPHEMERIS_TYPE":"0","MEAN_MOTION":"15.06410149","DECAY_DATE":null,"LAUNCH_DATE":"2021-03-14","RCS_SIZE":"LARGE","FILE":"3536615","RA_OF_ASC_NODE":"1.1242","ARG_OF_PERICENTER":"80.2243","CLASSIFICATION_TYPE":"U","TIME_SYSTEM":"UTC","PERIAPSIS":"546.195","MEAN_MOTION_DOT":"0.00001019","OBJECT_NAME":"STARLINK-2369","MEAN_ELEMENT_THEORY":"SGP4","TLE_LINE2":"2 47909  53.0554   1.1242 0001426  80.2243 279.8907 15.06410149 79958"},{"OBJECT_TYPE":"PAYLOAD","SITE":"AFETR","MEAN_MOTION":"15.06392390","DECAY_DATE":null,"EPHEMERIS_TYPE":"0","CLASSIFICATION_TYPE":"U","FILE":"3536615","RA_OF_ASC_NODE":"0.9641","ARG_OF_PERICENTER":"82.9931","LAUNCH_DATE":"2021-03-14","RCS_SIZE":"LARGE","TIME_SYSTEM":"UTC","MEAN_ELEMENT_THEORY":"SGP4","TLE_LINE2":"2 47910  53.0560   0.9641 0001470  82.9931 277.1225 15.06392390 79815","OBJECT_NAME":"STARLINK-2370","MEAN_MOTION_DOT":"-0.00000444","PERIAPSIS":"546.219","BSTAR":"-0.00001089900000","MEAN_MOTION_DDOT":"0.0000000000000","NORAD_CAT_ID":"47910","CENTER_NAME":"EARTH","INCLINATION":"53.0560","ELEMENT_SET_NO":"999","SEMIMAJOR_AXIS":"6925.372","TLE_LINE1":"1 47910U 21021BC  22226.70373053 -.00000444  00000-0 -10899-4 0  9994","REF_FRAME":"TEME","PERIOD":"95.593","OBJECT_ID":"2021-021BC","COUNTRY_CODE":"US","ECCENTRICITY":"0.00014700","GP_ID":"210231646","APOAPSIS":"548.255","REV_AT_EPOCH":"7981","MEAN_ANOMALY":"277.1225","EPOCH":"2022-08-14T16:53:22.317792"},{"TIME_SYSTEM":"UTC","RCS_SIZE":"LARGE","LAUNCH_DATE":"2021-03-14","FILE":"3536615","ARG_OF_PERICENTER":"89.7345","RA_OF_ASC_NODE":"15.8236","CLASSIFICATION_TYPE":"U","PERIAPSIS":"546.300","MEAN_MOTION_DOT":"-0.00000348","OBJECT_NAME":"STARLINK-2371","MEAN_ELEMENT_THEORY":"SGP4","TLE_LINE2":"2 47911  53.0561  15.8236 0001345  89.7345 270.3798 15.06394159 79441","OBJECT_TYPE":"PAYLOAD","SITE":"AFETR","EPHEMERIS_TYPE":"0","MEAN_MOTION":"15.06394159","DECAY_DATE":null,"OBJECT_ID":"2021-021BD","PERIOD":"95.593","REF_FRAME":"TEME","TLE_LINE1":"1 47911U 21021BD  22226.78625701 -.00000348  00000-0 -44716-5 0  9992","EPOCH":"2022-08-14T18:52:12.605664","MEAN_ANOMALY":"270.3798","REV_AT_EPOCH":"7944","APOAPSIS":"548.163","GP_ID":"210231895","ECCENTRICITY":"0.00013450","COUNTRY_CODE":"US","MEAN_MOTION_DDOT":"0.0000000000000","BSTAR":"-0.00000447160000","SEMIMAJOR_AXIS":"6925.366","ELEMENT_SET_NO":"999","CENTER_NAME":"EARTH","INCLINATION":"53.0561","NORAD_CAT_ID":"47911"},{"SEMIMAJOR_AXIS":"6925.324","ELEMENT_SET_NO":"999","INCLINATION":"53.0571","CENTER_NAME":"EARTH","NORAD_CAT_ID":"47912","MEAN_MOTION_DDOT":"0.0000000000000","BSTAR":"0.00007693100000","EPOCH":"2022-08-14T16:42:43.814880","MEAN_ANOMALY":"280.5316","APOAPSIS":"548.115","REV_AT_EPOCH":"7964","GP_ID":"210232145","ECCENTRICITY":"0.00013380","COUNTRY_CODE":"US","OBJECT_ID":"2021-021BE","PERIOD":"95.592","REF_FRAME":"TEME","TLE_LINE1":"1 47912U 21021BE  22226.69634045  .00000865  00000-0  76931-4 0  9999","EPHEMERIS_TYPE":"0","DECAY_DATE":null,"MEAN_MOTION":"15.06408135","OBJECT_TYPE":"PAYLOAD","SITE":"AFETR","PERIAPSIS":"546.262","MEAN_MOTION_DOT":"0.00000865","OBJECT_NAME":"STARLINK-2372","MEAN_ELEMENT_THEORY":"SGP4","TLE_LINE2":"2 47912  53.0571   0.9822 0001338  79.5824 280.5316 15.06408135 79641","TIME_SYSTEM":"UTC","LAUNCH_DATE":"2021-03-14","RCS_SIZE":"LARGE","FILE":"3536615","ARG_OF_PERICENTER":"79.5824","RA_OF_ASC_NODE":"0.9822","CLASSIFICATION_TYPE":"U"},{"BSTAR":"0.00001319500000","MEAN_MOTION_DDOT":"0.0000000000000","NORAD_CAT_ID":"47913","CENTER_NAME":"EARTH","INCLINATION":"53.0574","SEMIMAJOR_AXIS":"6925.364","ELEMENT_SET_NO":"999","TLE_LINE1":"1 47913U 21021BF  22226.83650232 -.00000085  00000-0  13195-4 0  9990","REF_FRAME":"TEME","OBJECT_ID":"2021-021BF","PERIOD":"95.592","ECCENTRICITY":"0.00014460","COUNTRY_CODE":"US","GP_ID":"210230896","APOAPSIS":"548.230","REV_AT_EPOCH":"7968","EPOCH":"2022-08-14T20:04:33.800448","MEAN_ANOMALY":"278.7313","OBJECT_TYPE":"PAYLOAD","SITE":"AFETR","EPHEMERIS_TYPE":"0","MEAN_MOTION":"15.06395070","DECAY_DATE":null,"FILE":"3536615","RA_OF_ASC_NODE":"10.8354","ARG_OF_PERICENTER":"81.3840","CLASSIFICATION_TYPE":"U","LAUNCH_DATE":"2021-03-14","RCS_SIZE":"LARGE","TIME_SYSTEM":"UTC","MEAN_MOTION_DOT":"-0.00000085","OBJECT_NAME":"STARLINK-2374","TLE_LINE2":"2 47913  53.0574  10.8354 0001446  81.3840 278.7313 15.06395070 79687","MEAN_ELEMENT_THEORY":"SGP4","PERIAPSIS":"546.227"},{"NORAD_CAT_ID":"47914","SEMIMAJOR_AXIS":"6925.318","ELEMENT_SET_NO":"999","CENTER_NAME":"EARTH","INCLINATION":"53.0566","BSTAR":"0.00009367100000","MEAN_MOTION_DDOT":"0.0000000000000","GP_ID":"210231146","ECCENTRICITY":"0.00013570","COUNTRY_CODE":"US","EPOCH":"2022-08-14T18:55:27.571584","MEAN_ANOMALY":"265.7463","APOAPSIS":"548.122","REV_AT_EPOCH":"7967","TLE_LINE1":"1 47914U 21021BG  22226.78851356  .00001114  00000-0  93671-4 0  9995","OBJECT_ID":"2021-021BG","PERIOD":"95.592","REF_FRAME":"TEME","EPHEMERIS_TYPE":"0","DECAY_DATE":null,"MEAN_MOTION":"15.06410078","SITE":"AFETR","OBJECT_TYPE":"PAYLOAD","PERIAPSIS":"546.243","MEAN_MOTION_DOT":"0.00001114","OBJECT_NAME":"STARLINK-2375","MEAN_ELEMENT_THEORY":"SGP4","TLE_LINE2":"2 47914  53.0566  10.5823 0001357  94.3681 265.7463 15.06410078 79672","LAUNCH_DATE":"2021-03-14","RCS_SIZE":"LARGE","ARG_OF_PERICENTER":"94.3681","FILE":"3536615","RA_OF_ASC_NODE":"10.5823","CLASSIFICATION_TYPE":"U","TIME_SYSTEM":"UTC"},{"PERIAPSIS":"546.292","TLE_LINE2":"2 47915  53.0543   5.2780 0001297  97.4064 262.7072 15.06407738 79765","MEAN_ELEMENT_THEORY":"SGP4","MEAN_MOTION_DOT":"0.00000847","OBJECT_NAME":"STARLINK-2376","TIME_SYSTEM":"UTC","RCS_SIZE":"LARGE","LAUNCH_DATE":"2021-03-14","CLASSIFICATION_TYPE":"U","FILE":"3536615","RA_OF_ASC_NODE":"5.2780","ARG_OF_PERICENTER":"97.4064","DECAY_DATE":null,"MEAN_MOTION":"15.06407738","EPHEMERIS_TYPE":"0","OBJECT_TYPE":"PAYLOAD","SITE":"AFETR","MEAN_ANOMALY":"262.7072","EPOCH":"2022-08-14T20:29:00.850848","APOAPSIS":"548.088","REV_AT_EPOCH":"7976","GP_ID":"210232396","COUNTRY_CODE":"US","ECCENTRICITY":"0.00012970","PERIOD":"95.592","OBJECT_ID":"2021-021BH","REF_FRAME":"TEME","TLE_LINE1":"1 47915U 21021BH  22226.85348207  .00000847  00000-0  75703-4 0  9998","ELEMENT_SET_NO":"999","SEMIMAJOR_AXIS":"6925.325","INCLINATION":"53.0543","CENTER_NAME":"EARTH","NORAD_CAT_ID":"47915","MEAN_MOTION_DDOT":"0.0000000000000","BSTAR":"0.00007570300000"},{"APOAPSIS":"548.173","REV_AT_EPOCH":"7994","EPOCH":"2022-08-14T19:51:13.054752","MEAN_ANOMALY":"271.0035","ECCENTRICITY":"0.00013460","COUNTRY_CODE":"US","GP_ID":"210232646","REF_FRAME":"TEME","OBJECT_ID":"2021-021BJ","PERIOD":"95.593","TLE_LINE1":"1 47916U 21021BJ  22226.82723443 -.00000490  00000-0 -13995-4 0  9996","CENTER_NAME":"EARTH","INCLINATION":"53.0550","SEMIMAJOR_AXIS":"6925.376","ELEMENT_SET_NO":"999","NORAD_CAT_ID":"47916","MEAN_MOTION_DDOT":"0.0000000000000","BSTAR":"-0.00001399500000","OBJECT_NAME":"STARLINK-2378","MEAN_MOTION_DOT":"-0.00000490","TLE_LINE2":"2 47916  53.0550 350.4090 0001346  89.1109 271.0035 15.06391108 79941","MEAN_ELEMENT_THEORY":"SGP4","PERIAPSIS":"546.309","TIME_SYSTEM":"UTC","RA_OF_ASC_NODE":"350.4090","FILE":"3536615","ARG_OF_PERICENTER":"89.1109","CLASSIFICATION_TYPE":"U","RCS_SIZE":"LARGE","LAUNCH_DATE":"2021-03-14","EPHEMERIS_TYPE":"0","MEAN_MOTION":"15.06391108","DECAY_DATE":null,"OBJECT_TYPE":"PAYLOAD","SITE":"AFETR"},{"DECAY_DATE":null,"MEAN_MOTION":"15.06403656","EPHEMERIS_TYPE":"0","SITE":"AFETR","OBJECT_TYPE":"PAYLOAD","MEAN_ELEMENT_THEORY":"SGP4","TLE_LINE2":"2 47917  53.0554   0.6621 0001242  98.4584 261.6546 15.06403656 79781","OBJECT_NAME":"STARLINK-2397","MEAN_MOTION_DOT":"0.00000693","PERIAPSIS":"546.342","CLASSIFICATION_TYPE":"U","FILE":"3536615","RA_OF_ASC_NODE":"0.6621","ARG_OF_PERICENTER":"98.4584","LAUNCH_DATE":"2021-03-14","RCS_SIZE":"LARGE","TIME_SYSTEM":"UTC","NORAD_CAT_ID":"47917","INCLINATION":"53.0554","CENTER_NAME":"EARTH","ELEMENT_SET_NO":"999","SEMIMAJOR_AXIS":"6925.337","BSTAR":"0.00006542100000","MEAN_MOTION_DDOT":"0.0000000000000","COUNTRY_CODE":"US","ECCENTRICITY":"0.00012420","GP_ID":"210231397","REV_AT_EPOCH":"7978","APOAPSIS":"548.062","MEAN_ANOMALY":"261.6546","EPOCH":"2022-08-14T18:24:56.703744","TLE_LINE1":"1 47917U 21021BK  22226.76732296  .00000693  00000-0  65421-4 0  9990","REF_FRAME":"TEME","PERIOD":"95.592","OBJECT_ID":"2021-021BK"}];
